start=new Date('2022-02-05T00:00:00.000Z').valueOf();
sats=[{"OBJECT_TYPE":"PAYLOAD","CLASSIFICATION_TYPE":"U","EPOCH":"2022-02-04T13:06:41.497632","MEAN_ANOMALY":"276.5022","TIME_SYSTEM":"UTC","ARG_OF_PERICENTER":"83.6147","ECCENTRICITY":"0.00015830","MEAN_MOTION_DDOT":"0.0000000000000","OBJECT_NAME":"STARLINK-1845","RCS_SIZE":"LARGE","ELEMENT_SET_NO":"999","BSTAR":"0.00007051100000","EPHEMERIS_TYPE":"0","COUNTRY_CODE":"US","OBJECT_ID":"2020-088P","REF_FRAME":"TEME","INCLINATION":"53.0558","CENTER_NAME":"EARTH","LAUNCH_DATE":"2020-11-25","PERIOD":"95.592","PERIAPSIS":"546.110","TLE_LINE1":"1 47135U 20088P   22035.54631363  .00000769  00000-0  70511-4 0  9991","RA_OF_ASC_NODE":"159.1018","REV_AT_EPOCH":"6677","TLE_LINE2":"2 47135  53.0558 159.1018 0001583  83.6147 276.5022 15.06402271 66777","MEAN_MOTION":"15.06402271","FILE":"3291889","APOAPSIS":"548.303","SITE":"AFETR","GP_ID":"195298606","MEAN_ELEMENT_THEORY":"SGP4","NORAD_CAT_ID":"47135","SEMIMAJOR_AXIS":"6925.342","MEAN_MOTION_DOT":"0.00000769","DECAY_DATE":null},{"TIME_SYSTEM":"UTC","ARG_OF_PERICENTER":"91.4613","OBJECT_TYPE":"PAYLOAD","CLASSIFICATION_TYPE":"U","EPOCH":"2022-02-04T13:05:21.736608","MEAN_ANOMALY":"268.6584","OBJECT_NAME":"STARLINK-1846","RCS_SIZE":"LARGE","ELEMENT_SET_NO":"999","BSTAR":"0.00009768000000","EPHEMERIS_TYPE":"0","ECCENTRICITY":"0.00018150","MEAN_MOTION_DDOT":"0.0000000000000","LAUNCH_DATE":"2020-11-25","PERIOD":"95.591","PERIAPSIS":"545.920","TLE_LINE1":"1 47136U 20088Q   22035.54539047  .00001174  00000-0  97680-4 0  9995","COUNTRY_CODE":"US","OBJECT_ID":"2020-088Q","REF_FRAME":"TEME","INCLINATION":"53.0552","CENTER_NAME":"EARTH","GP_ID":"195298855","MEAN_ELEMENT_THEORY":"SGP4","SEMIMAJOR_AXIS":"6925.312","NORAD_CAT_ID":"47136","MEAN_MOTION_DOT":"0.00001174","DECAY_DATE":null,"RA_OF_ASC_NODE":"169.0951","REV_AT_EPOCH":"6663","TLE_LINE2":"2 47136  53.0552 169.0951 0001815  91.4613 268.6584 15.06412055 66632","MEAN_MOTION":"15.06412055","FILE":"3291889","APOAPSIS":"548.434","SITE":"AFETR"},{"ELEMENT_SET_NO":"999","RCS_SIZE":"LARGE","OBJECT_NAME":"STARLINK-1849","EPHEMERIS_TYPE":"0","BSTAR":"0.00069642000000","ECCENTRICITY":"0.00015760","MEAN_MOTION_DDOT":"0.0000000000000","TIME_SYSTEM":"UTC","ARG_OF_PERICENTER":"89.4906","EPOCH":"2022-02-04T14:15:42.170976","OBJECT_TYPE":"PAYLOAD","CLASSIFICATION_TYPE":"U","MEAN_ANOMALY":"270.6263","MEAN_MOTION_DOT":"0.00010112","NORAD_CAT_ID":"47137","SEMIMAJOR_AXIS":"6925.291","GP_ID":"195300105","MEAN_ELEMENT_THEORY":"SGP4","DECAY_DATE":null,"APOAPSIS":"548.247","MEAN_MOTION":"15.06418827","FILE":"3291889","REV_AT_EPOCH":"6678","TLE_LINE2":"2 47137  53.0529 158.8726 0001576  89.4906 270.6263 15.06418827 66785","RA_OF_ASC_NODE":"158.8726","SITE":"AFETR","PERIAPSIS":"546.064","PERIOD":"95.591","LAUNCH_DATE":"2020-11-25","TLE_LINE1":"1 47137U 20088R   22035.59423809  .00010112  00000-0  69642-3 0  9997","REF_FRAME":"TEME","OBJECT_ID":"2020-088R","COUNTRY_CODE":"US","CENTER_NAME":"EARTH","INCLINATION":"53.0529"},{"MEAN_MOTION":"15.06399850","FILE":"3292005","APOAPSIS":"548.166","RA_OF_ASC_NODE":"163.1228","REV_AT_EPOCH":"6704","TLE_LINE2":"2 47138  53.0555 163.1228 0001375  75.9399 284.1743 15.06399850 67041","SITE":"AFETR","SEMIMAJOR_AXIS":"6925.349","NORAD_CAT_ID":"47138","MEAN_MOTION_DOT":"0.00001686","GP_ID":"195306354","MEAN_ELEMENT_THEORY":"SGP4","DECAY_DATE":null,"OBJECT_ID":"2020-088S","REF_FRAME":"TEME","COUNTRY_CODE":"US","INCLINATION":"53.0555","CENTER_NAME":"EARTH","PERIAPSIS":"546.262","LAUNCH_DATE":"2020-11-25","PERIOD":"95.592","TLE_LINE1":"1 47138U 20088S   22035.76053771  .00001686  00000-0  13205-3 0  9994","ECCENTRICITY":"0.00013750","MEAN_MOTION_DDOT":"0.0000000000000","ELEMENT_SET_NO":"999","RCS_SIZE":"LARGE","OBJECT_NAME":"STARLINK-1850","EPHEMERIS_TYPE":"0","BSTAR":"0.00013205000000","CLASSIFICATION_TYPE":"U","OBJECT_TYPE":"PAYLOAD","EPOCH":"2022-02-04T18:15:10.458144","MEAN_ANOMALY":"284.1743","TIME_SYSTEM":"UTC","ARG_OF_PERICENTER":"75.9399"},{"SITE":"AFETR","RA_OF_ASC_NODE":"174.0475","TLE_LINE2":"2 47139  53.0551 174.0475 0001318  73.8830 286.2304 15.06398674 66562","REV_AT_EPOCH":"6656","FILE":"3291889","MEAN_MOTION":"15.06398674","APOAPSIS":"548.130","DECAY_DATE":null,"GP_ID":"195299106","MEAN_ELEMENT_THEORY":"SGP4","NORAD_CAT_ID":"47139","SEMIMAJOR_AXIS":"6925.353","MEAN_MOTION_DOT":"0.00002261","INCLINATION":"53.0551","CENTER_NAME":"EARTH","COUNTRY_CODE":"US","OBJECT_ID":"2020-088T","REF_FRAME":"TEME","TLE_LINE1":"1 47139U 20088T   22035.55689420  .00002261  00000-0  17065-3 0  9996","LAUNCH_DATE":"2020-11-25","PERIOD":"95.592","PERIAPSIS":"546.305","MEAN_MOTION_DDOT":"0.0000000000000","ECCENTRICITY":"0.00013180","BSTAR":"0.00017065000000","EPHEMERIS_TYPE":"0","RCS_SIZE":"LARGE","ELEMENT_SET_NO":"999","OBJECT_NAME":"STARLINK-1852","MEAN_ANOMALY":"286.2304","OBJECT_TYPE":"PAYLOAD","CLASSIFICATION_TYPE":"U","EPOCH":"2022-02-04T13:21:55.658880","ARG_OF_PERICENTER":"73.8830","TIME_SYSTEM":"UTC"},{"ARG_OF_PERICENTER":"92.2210","TIME_SYSTEM":"UTC","MEAN_ANOMALY":"267.8937","CLASSIFICATION_TYPE":"U","OBJECT_TYPE":"PAYLOAD","EPOCH":"2022-02-04T16:49:36.903648","EPHEMERIS_TYPE":"0","BSTAR":"0.00009763800000","RCS_SIZE":"LARGE","ELEMENT_SET_NO":"999","OBJECT_NAME":"STARLINK-1854","MEAN_MOTION_DDOT":"0.0000000000000","ECCENTRICITY":"0.00013840","TLE_LINE1":"1 47141U 20088V   22035.70112157  .00001174  00000-0  97638-4 0  9991","PERIAPSIS":"546.217","LAUNCH_DATE":"2020-11-25","PERIOD":"95.591","INCLINATION":"53.0575","CENTER_NAME":"EARTH","OBJECT_ID":"2020-088V","REF_FRAME":"TEME","COUNTRY_CODE":"US","DECAY_DATE":null,"NORAD_CAT_ID":"47141","SEMIMAJOR_AXIS":"6925.311","MEAN_MOTION_DOT":"0.00001174","MEAN_ELEMENT_THEORY":"SGP4","GP_ID":"195308300","SITE":"AFETR","FILE":"3292104","MEAN_MOTION":"15.06412295","APOAPSIS":"548.134","RA_OF_ASC_NODE":"158.3941","TLE_LINE2":"2 47141  53.0575 158.3941 0001384  92.2210 267.8937 15.06412295 67096","REV_AT_EPOCH":"6709"},{"TLE_LINE2":"2 47143  53.0548 158.1669 0001410  81.9865 278.1283 15.06407923 67095","REV_AT_EPOCH":"6709","RA_OF_ASC_NODE":"158.1669","APOAPSIS":"548.166","FILE":"3292104","MEAN_MOTION":"15.06407923","SITE":"AFETR","GP_ID":"195308297","MEAN_ELEMENT_THEORY":"SGP4","MEAN_MOTION_DOT":"0.00002583","SEMIMAJOR_AXIS":"6925.324","NORAD_CAT_ID":"47143","DECAY_DATE":null,"COUNTRY_CODE":"US","REF_FRAME":"TEME","OBJECT_ID":"2020-088X","CENTER_NAME":"EARTH","INCLINATION":"53.0548","PERIOD":"95.592","LAUNCH_DATE":"2020-11-25","PERIAPSIS":"546.213","TLE_LINE1":"1 47143U 20088X   22035.74903293  .00002583  00000-0  19220-3 0  9991","ECCENTRICITY":"0.00014100","MEAN_MOTION_DDOT":"0.0000000000000","RCS_SIZE":"LARGE","ELEMENT_SET_NO":"999","OBJECT_NAME":"STARLINK-1856","BSTAR":"0.00019220000000","EPHEMERIS_TYPE":"0","CLASSIFICATION_TYPE":"U","OBJECT_TYPE":"PAYLOAD","EPOCH":"2022-02-04T17:58:36.445152","MEAN_ANOMALY":"278.1283","TIME_SYSTEM":"UTC","ARG_OF_PERICENTER":"81.9865"},{"RCS_SIZE":"LARGE","ELEMENT_SET_NO":"999","OBJECT_NAME":"STARLINK-1857","EPHEMERIS_TYPE":"0","BSTAR":"0.00120430000000","ECCENTRICITY":"0.00019300","MEAN_MOTION_DDOT":"0.0000000000000","ARG_OF_PERICENTER":"62.0653","TIME_SYSTEM":"UTC","CLASSIFICATION_TYPE":"U","OBJECT_TYPE":"PAYLOAD","EPOCH":"2022-02-04T19:14:15.008640","MEAN_ANOMALY":"298.0531","MEAN_MOTION_DOT":"0.00017712","NORAD_CAT_ID":"47144","SEMIMAJOR_AXIS":"6925.286","MEAN_ELEMENT_THEORY":"SGP4","GP_ID":"195308525","DECAY_DATE":null,"APOAPSIS":"548.488","MEAN_MOTION":"15.06420405","FILE":"3292104","TLE_LINE2":"2 47144  53.0548 147.9489 0001930  62.0653 298.0531 15.06420405 67204","REV_AT_EPOCH":"6720","RA_OF_ASC_NODE":"147.9489","SITE":"AFETR","PERIAPSIS":"545.814","PERIOD":"95.591","LAUNCH_DATE":"2020-11-25","TLE_LINE1":"1 47144U 20088Y   22035.80156260  .00017712  00000-0  12043-2 0  9998","REF_FRAME":"TEME","OBJECT_ID":"2020-088Y","COUNTRY_CODE":"US","CENTER_NAME":"EARTH","INCLINATION":"53.0548"},{"MEAN_MOTION":"15.27883931","FILE":"3291889","APOAPSIS":"483.037","RA_OF_ASC_NODE":"146.7144","TLE_LINE2":"2 47145  53.0532 146.7144 0001306  66.3880 293.7255 15.27883931 66955","REV_AT_EPOCH":"6695","SITE":"AFETR","NORAD_CAT_ID":"47145","SEMIMAJOR_AXIS":"6860.276","MEAN_MOTION_DOT":"0.00062862","MEAN_ELEMENT_THEORY":"SGP4","GP_ID":"195298607","DECAY_DATE":null,"OBJECT_ID":"2020-088Z","REF_FRAME":"TEME","COUNTRY_CODE":"US","INCLINATION":"53.0532","CENTER_NAME":"EARTH","PERIAPSIS":"481.245","LAUNCH_DATE":"2020-11-25","PERIOD":"94.248","TLE_LINE1":"1 47145U 20088Z   22035.58595322  .00062862  00000-0  22722-2 0  9991","ECCENTRICITY":"0.00013060","MEAN_MOTION_DDOT":"0.0000000000000","OBJECT_NAME":"STARLINK-1858","RCS_SIZE":"LARGE","ELEMENT_SET_NO":"999","EPHEMERIS_TYPE":"0","BSTAR":"0.00227220000000","CLASSIFICATION_TYPE":"U","OBJECT_TYPE":"PAYLOAD","EPOCH":"2022-02-04T14:03:46.358208","MEAN_ANOMALY":"293.7255","TIME_SYSTEM":"UTC","ARG_OF_PERICENTER":"66.3880"},{"INCLINATION":"53.0543","CENTER_NAME":"EARTH","OBJECT_ID":"2020-088AA","REF_FRAME":"TEME","COUNTRY_CODE":"US","TLE_LINE1":"1 47146U 20088AA  22035.60117541  .00367738  00000-0  28813-2 0  9995","PERIAPSIS":"357.981","LAUNCH_DATE":"2020-11-25","PERIOD":"91.724","SITE":"AFETR","FILE":"3291975","MEAN_MOTION":"15.69927689","APOAPSIS":"360.230","RA_OF_ASC_NODE":"154.5498","REV_AT_EPOCH":"6709","TLE_LINE2":"2 47146  53.0543 154.5498 0001669  29.7876 330.3235 15.69927689 67094","DECAY_DATE":null,"NORAD_CAT_ID":"47146","SEMIMAJOR_AXIS":"6737.241","MEAN_MOTION_DOT":"0.00367738","MEAN_ELEMENT_THEORY":"SGP4","GP_ID":"195305517","MEAN_ANOMALY":"330.3235","CLASSIFICATION_TYPE":"U","OBJECT_TYPE":"PAYLOAD","EPOCH":"2022-02-04T14:25:41.555424","TIME_SYSTEM":"UTC","ARG_OF_PERICENTER":"29.7876","MEAN_MOTION_DDOT":"0.0000000000000","ECCENTRICITY":"0.00016690","EPHEMERIS_TYPE":"0","BSTAR":"0.00288130000000","RCS_SIZE":"LARGE","ELEMENT_SET_NO":"999","OBJECT_NAME":"STARLINK-1859"}];
